#dP2022  8  3 12  0  0.00000000      96 __u+U ITR00 EXT  IAC
## 2221 302400.00000000   900.00000000 59794 0.5000000000000
+  116   C06C07C08C09C10C11C12C13C14C16C19C20C21C22C23C24C25
+        C26C27C28C29C30C32C33C34C35C36C37C38C39C40C41C42C43
+        C44C45C46E01E02E03E04E05E07E08E09E10E11E12E13E14E15
+        E18E19E21E24E25E26E27E30E31E33E34E36G01G02G03G04G05
+        G06G07G08G09G10G11G12G13G14G15G16G17G18G19G20G21G22
+        G23G24G25G26G27G28G29G30G31G32J02J03R01R02R03R04R05
+        R07R08R09R11R12R13R14R15R17R18R19R20R21R24  0  0  0
++         0  0  0  0  0  0  0  0  0  0  0  0  0  0  0  0  0
++         0  0  0  0  0  0  0  0  0  0  0  0  0  0  0  0  0
++         0  0  0  0  0  0  0  0  0  0  0  0  0  0  0  0  0
++         0  0  0  0  0  0  0  0  0  0  0  0  0  0  0  0  0
++         0  0  0  0  0  0  0  0  0  0  0  0  0  0  0  0  0
++         0  0  0  0  0  0  0  0  0  0  0  0  0  0  0  0  0
++         0  0  0  0  0  0  0  0  0  0  0  0  0  0  0  0  0
%c M  cc GPS ccc cccc cccc cccc cccc ccccc ccccc ccccc ccccc
%c cc cc ccc ccc cccc cccc cccc cccc ccccc ccccc ccccc ccccc
%f  0.0000000  0.000000000  0.00000000000  0.000000000000000
%f  0.0000000  0.000000000  0.00000000000  0.000000000000000
%i    0    0    0    0      0      0      0      0         0
%i    0    0    0    0      0      0      0      0         0
/* IAC                                ULTRA-RAPID PREDICTION
/* S/V CLOCKS ARE ALIGNED TO GNSS TIME                      
/* G:C1WC2W R:C1PC2P E:C1XC5X C:C2IC6I J:C1CC2S             
/* PCV:IGS14_2215 OL/AL:FES2004  NONE     YN ORB:CoN CLK:CoN
*  2022 08 04  4 15  0.00000000
PC06 -17643.830147  27358.751814 -26894.472477    535.624903
PC07  -8325.139819  40511.578832  -7662.861371   -518.703833
PC08    542.312917  24853.635265  34081.651030    428.991126
PC09  -9940.993928  26537.778919 -31002.434754   -906.518568
PC10  -2927.046783  41740.456828  -1452.978602    112.189213
PC11 -23306.590510  14393.466235   5278.524497   -490.341199
PC12 -24962.267179   2898.795549 -12078.639934   -560.146077
PC13   5796.900645  28099.696929  31121.702829     42.928322
PC14 -12855.495436  18055.505975  16934.245367    573.204450
PC16 -20723.908566  26765.250755 -25098.098048    143.150391
PC19   7950.875209 -25117.597334  -9213.972871   -353.855856
PC20  15159.485979 -10138.169456 -21122.879415   -965.198024
PC21 -13704.909225 -12081.353428  21112.767659   -116.258351
PC22  -4106.733306 -26266.988269   8526.585482    -23.321174
PC23  11456.142577  20655.600149 -14848.501893   -956.796484
PC24 -22403.215035   -705.148174 -16610.062913   -968.039735
PC25  -6485.249784  15088.580664 -22565.586669   -697.955183
PC26 -24248.352860 -13580.349451  -2312.154674    700.105736
PC27  20641.344163   4214.684802  18273.303442    764.506815
PC28   3922.091393  15611.110024  22794.416128     97.715743
PC29  15426.108551 -18801.828522 -13698.625210    590.678093
PC30  25625.108086 -10301.729084   3928.431186    501.780863
PC32  13780.122699  12024.085775 -21063.057566   -339.858141
PC33  -7890.377519  25079.454479   9326.695883   -325.951591
PC34 -25509.691960  10961.418349  -2907.013615   -343.964147
PC35  -3177.514139 -16094.852959 -22583.496855    396.419101
PC36   7424.536955 -14589.902111  22630.924060   -969.929831
PC37  23592.283258  14882.632887   1154.060415   -926.461660
PC38  -8291.483403  22349.626392  34799.415923     14.756703
PC39 -24736.918105  27387.968491 -20531.832688     -0.175352
PC40 -13753.516625  38104.880656 -11277.813405     -1.697587
PC41   3856.680874  26441.191655  -7991.766097   -136.573577
PC42 -15417.820209   8849.900999  21544.166451    -54.047158
PC43 -16111.389896  18683.611252  13045.924534      6.691802
PC44 -20720.318117  -3737.883271 -18343.176069      6.404064
PC45 -11780.555824 -20594.291121  14685.740011    826.104643
PC46  21579.832754   -616.343535  17711.711621   -467.791757
PE01  17873.237474     16.835272  23602.679650   -528.020575
PE02 -17801.937402    189.791041 -23640.570445    316.169191
PE03 -21714.194744  11616.741690  16410.847912   -585.877324
PE04  16100.316563 -24832.599296    672.260917  -1085.908080
PE05 -14672.411741  -8705.683162  24191.903468   -156.760663
PE07   -784.532986  23638.068798 -17785.717729   -693.472148
PE08 -15940.400078  24919.069104   -812.217941   -575.207248
PE09    841.112646 -23615.295809  17840.279812   -610.820901
PE10   4536.716287 -15693.399091 -24699.420488   -505.078842
PE11  -7799.443763 -15928.750852 -23716.948063   2766.236951
PE12  15397.454925 -13096.042073 -21629.620592    -96.911836
PE13   6974.515468  15909.399279  23962.570454    430.101382
PE14 -22571.267472   8364.955464 -12988.075052  -1759.665138
PE15 -15553.480753  12991.542067  21572.093426    729.084835
PE18  20521.526556 -22217.961021   -796.923272  -1135.947792
PE19  21463.923967  -9204.378758 -18180.615579  -4906.371692
PE21  19018.895661  18411.377365  13251.930349   -749.791214
PE24  -8454.513155 -27627.228636   6387.407994   -761.611070
PE25 -18943.371247 -18658.449200 -12993.835598   -583.366329
PE26  25740.559435   9134.345277  11415.121778  -1454.501552
PE27   9355.252730  27567.834232  -5362.259216   -360.246350
PE30  -6516.073315  19742.680742 -21075.624842   -726.306242
PE31   5741.596540 -20411.139214  20668.041360   -501.064438
PE33  28780.665863  -2429.970823  -6477.835163   -454.128304
PE34 -28720.567600   2586.119360   6635.148895   -489.194529
PE36 -25213.185535  -9475.250429 -12282.266511   -411.742639
PG01 -17204.662177 -13589.058467 -15543.382067    308.596562
PG02   -960.946483  15375.955066  22286.763241   -649.986036
PG03 -12465.010774 -22827.847357   5542.247485   -323.827643
PG04  -7020.751421 -14358.429471  21205.229487   -137.600435
PG05   4990.061045  24935.633129   7240.827367    -91.598801
PG06 -19743.711338   7418.966102  16250.889909    411.774920
PG07 -26068.733851  -6109.112625   2145.745189    316.417250
PG08   -236.210681 -19621.303621 -17770.267389    -78.997008
PG09 -16085.382529  -3414.153982  20794.982111   -312.042002
PG10  14325.503412  -4037.074598 -21858.982865   -515.691210
PG11  -7814.787628  13534.651808  21467.166677    -10.541546
PG12   9603.478613  24552.712050   3402.482884   -256.839358
PG13  -9965.241250  21050.700242 -12755.871869    361.271940
PG14 -15404.378093   2243.755791 -21521.411034   -110.450457
PG15   3055.385024  19836.606501 -17671.238496    -40.087483
PG16   2141.930842 -23281.146080  11884.303260   -518.864309
PG17 -21014.466650  10997.270175 -11573.737729    644.546779
PG18  25991.386775   5695.346519   1093.619145     92.810248
PG19 -20419.908778  16427.659464  -3670.456412    192.562888
PG20  -3433.806588  19742.267708  17547.671305    497.682917
PG21  -9070.000667 -14668.470561 -19768.077989    160.749790
PG22  18667.601816 -18742.708739   -327.444863    303.800522
PG23  17043.316034   7272.857190 -19084.960596    -35.646008
PG24  13898.007391  14497.346059 -17888.430627    178.619893
PG25  16374.354907  15629.591482  13821.834013    356.878975
PG26   7828.154721 -16739.008221  18880.730132    221.872645
PG27  10979.778692 -22467.027977  -8555.593330    220.472189
PG28 -11183.189799  12260.883095 -20284.456467    339.190203
PG29  15404.260653   4438.516776  21142.280497   -539.715616
PG30 -25221.200815   1674.063694  -8475.148047   -535.309005
PG31  18209.047121  -8917.207299  17258.620045   -188.338192
PG32  20215.575825 -13844.793754  -9858.614760   -194.227787
PJ02 -20708.955034  22204.589631 -24664.993166     -2.610762
PJ03 -29377.870561  27853.165738  16682.807953     -0.427055
PR01  10035.835801 -20961.191236 -10532.644524     12.572038
PR02   1992.575956 -23809.715181   8884.750335    525.932059
PR03  -7260.932553 -12153.845839  21246.735463     61.294985
PR04 -12044.294779   6002.088581  21697.657480    152.796036
PR05 -10481.294560  20901.675246  10232.391150     97.349862
PR07   7499.884007  11547.580418 -21446.781494     38.864470
PR08  12108.322580  -6161.242933 -21528.178225    -66.518593
PR09   9647.428847  18730.284912 -14299.804136     69.361436
PR11  17977.439180   5853.125469  17129.565060     31.448984
PR12   5792.463157  -9664.009635  22915.738409     19.739736
PR13  -8595.466275 -18359.891342  15476.617801    -25.327942
PR14 -19096.004896 -16767.892233  -2312.274954     24.655112
PR15 -17608.875476  -5263.246903 -17665.961545     94.376289
PR17 -16521.636003  -4378.573733 -18913.412167    549.355635
PR18 -24694.151086   4308.932467  -4834.610474     35.846675
PR19 -20948.413180   9839.159361  10705.732301   -198.738293
PR20  -2387.138760  10989.041579  22900.378145    -75.870596
PR21  17769.795589   3599.663742  17952.526661   -322.743414
PR24   1220.417808 -11358.683299 -22798.482435    107.075450
EOF
